[{"OBJECT_NAME":"STARLINK-6224","OBJECT_ID":"2023-061BD","EPOCH":"2026-03-09T08:29:56.195232","MEAN_MOTION":15.02536507,"ECCENTRICITY":0.00013696,"INCLINATION":43.0042,"RA_OF_ASC_NODE":173.3267,"ARG_OF_PERICENTER":257.4491,"MEAN_ANOMALY":102.6198,"EPHEMERIS_TYPE":0,"CLASSIFICATION_TYPE":"U","NORAD_CAT_ID":56425,"ELEMENT_SET_NO":999,"REV_AT_EPOCH":15700,"BSTAR":2.2599851e-5,"MEAN_MOTION_DOT":1.02e-6,"MEAN_MOTION_DDOT":0},{"OBJECT_NAME":"CZ-6A DEB","OBJECT_ID":"2024-140FM","EPOCH":"2026-03-09T15:58:48.665856","MEAN_MOTION":15.24907574,"ECCENTRICITY":0.01008734,"INCLINATION":89.2247,"RA_OF_ASC_NODE":296.4931,"ARG_OF_PERICENTER":41.247,"MEAN_ANOMALY":319.6342,"EPHEMERIS_TYPE":0,"CLASSIFICATION_TYPE":"U","NORAD_CAT_ID":60786,"ELEMENT_SET_NO":999,"REV_AT_EPOCH":8558,"BSTAR":0.0022097808,"MEAN_MOTION_DOT":0.0006402,"MEAN_MOTION_DDOT":0}]
